QIANFAN-32              
1 61565U 24185P   26060.50021999  .00000179  00000+0  25958-3 0  9990
2 61565  88.9781  72.8713 0009315 184.4327 175.6743 13.50762603 78675
QIANFAN-33              
1 61566U 24185Q   26060.50191010  .00000450  00000+0  31553-3 0  9993
2 61566  88.9734  70.0109 0009367  83.5702 276.6541 13.96618889 80156
QIANFAN-34              
1 61567U 24185R   26060.50096045  .00000469  00000+0  29655-3 0  9996
2 61567  88.9711  69.4700 0008188  87.1411 273.0706 14.02378751 80397
QIANFAN-35              
1 61568U 24185S   26060.45700875  .00000825  00000+0  32598-3 0  9990
2 61568  88.9742  67.6221 0007913  43.1654 317.0160 14.28109485 81417
QIANFAN-36              
1 61569U 24185T   26060.49912316  .00000148  00000+0  19532-3 0  9991
2 61569  88.9716  72.8260 0006634 156.7062 203.4393 13.55612637 78591
QIANFAN-37              
1 62238U 24232B   26060.42623962  .00000073  00000+0  93836-4 0  9994
2 62238  89.0042  33.3795 0001590  95.8376 264.2956 13.51004678109794
QIANFAN-38              
1 62239U 24232C   26060.45087802  .00000060  00000+0  74280-4 0  9993
2 62239  89.0049  33.2982 0013801 335.9713  24.0792 13.51003309109857
QIANFAN-39              
1 62240U 24232D   26060.46867760  .00000396  00000+0  16165-3 0  9994
2 62240  89.0048  28.3004 0016019 172.3522 187.7919 14.25432425112605
QIANFAN-40              
1 62241U 24232E   26060.48379122  .00000061  00000+0  75848-4 0  9990
2 62241  89.0078  32.9015 0013140 344.7650  15.3103 13.51002469110227
QIANFAN-41              
1 62242U 24232F   26060.49206690  .00000122  00000+0  16989-3 0  9999
2 62242  89.0047  33.2442 0013086 332.0292  28.0154 13.51004188109880
QIANFAN-42              
1 62243U 24232G   26060.44654062  .00000376  00000+0  15560-3 0  9990
2 62243  89.0046  28.3619 0014628 178.0019 182.1235 14.24526515112575
QIANFAN-43              
1 62244U 24232H   26060.41384862  .00000049  00000+0  58237-4 0  9992
2 62244  89.0052  33.3209 0014789 336.9256  23.1229 13.51004159 78482
QIANFAN-44              
1 62245U 24232J   26060.47556980  .00000069  00000+0  89039-4 0  9997
2 62245  89.0051  33.1242 0012913 334.6942  25.3575 13.51002140109965
QIANFAN-45              
1 62246U 24232K   26060.44267403  .00000069  00000+0  88000-4 0  9991
2 62246  89.0054  33.2768 0013554 333.9492  26.0975 13.50999876109880
QIANFAN-46              
1 62247U 24232L   26060.46732875  .00000074  00000+0  95788-4 0  9991
2 62247  89.0050  33.3401 0013794 339.6450  20.4149 13.51002714109849
QIANFAN-47              
1 62248U 24232M   26060.47144034  .00000071  00000+0  90752-4 0  9990
2 62248  89.0046  33.2695 0014193 338.4909  21.5644 13.51002646109878
QIANFAN-48              
1 62249U 24232N   26060.43441846  .00000059  00000+0  73506-4 0  9992
2 62249  89.0050  33.2781 0016529 340.2295  19.8213 13.51002809109877
QIANFAN-49              
1 62250U 24232P   26060.42207431  .00000072  00000+0  93548-4 0  9996
2 62250  89.0049  33.2913 0013439 336.0919  23.9607 13.51001969 78466
QIANFAN-50              
1 62251U 24232Q   26060.44675325  .00000064  00000+0  80723-4 0  9992
2 62251  89.0054  33.3012 0015129 336.5451  23.5009 13.51002923 78494
QIANFAN-51              
1 62252U 24232R   26060.43032877  .00000071  00000+0  90814-4 0  9991
2 62252  89.0048  33.2919 0012770 341.8919  18.1776 13.51003691 78483
QIANFAN-52              
1 62253U 24232S   26060.45912487  .00000064  00000+0  81279-4 0  9995
2 62253  89.0045  33.1596 0014480 332.4805  27.5578 13.51000234 78575
QIANFAN-53              
1 62254U 24232T   26060.43852924  .00000059  00000+0  72766-4 0  9998
2 62254  89.0052  33.2720 0013410 334.3280  25.7204 13.51002935 78536
QIANFAN-54              
1 62255U 24232U   26060.47970301  .00000063  00000+0  79081-4 0  9995
2 62255  89.0044  32.9395 0003365  45.4275 314.7150 13.51002354110043
QIANFAN-55              
1 62785U 25016A   26060.50573071  .00000067  00000+0  84351-4 0  9991
2 62785  88.9697  95.0631 0019313 118.5145 241.7953 13.50995946 57827
QIANFAN-56              
1 62786U 25016B   26060.44804481  .00000063  00000+0  79260-4 0  9996
2 62786  88.9671  94.8843 0017930 120.5913 239.7009 13.50997826 57863
QIANFAN-57              
1 62787U 25016C   26060.48102169  .00000060  00000+0  73921-4 0  9990
2 62787  88.9702  95.0588 0001363  94.2663 265.8644 13.50996718 57831
QIANFAN-58              
1 62788U 25016D   26060.45215889  .00000085  00000+0  11286-3 0  9994
2 62788  88.9672  94.8691 0015925 113.5449 246.7377 13.50998348 57872
QIANFAN-59              
1 62789U 25016E   26060.47698584  .00000060  00000+0  74452-4 0  9992
2 62789  88.9695  94.9590 0016253 116.8431 243.4384 13.50994274 57875
QIANFAN-60              
1 62790U 25016F   26060.50990896  .00000049  00000+0  56728-4 0  9992
2 62790  88.9676  94.9119 0017838 113.8744 246.4278 13.50992232 57863
QIANFAN-61              
1 62791U 25016G   26060.46876927  .00000047  00000+0  53576-4 0  9992
2 62791  88.9743  95.1329 0016769 113.2656 247.0262 13.50993539 57875
QIANFAN-62              
1 62792U 25016H   26060.47282213  .00000052  00000+0  61862-4 0  9996
2 62792  88.9690  94.9582 0018151 113.7500 246.5557 13.50996279 57869
